STARLINK-3668           
1 52002U 22025AY  25221.79247635 -.00001014  00000+0 -45683-4 0  9992
2 52002  53.2167 250.4047 0000952  88.8253 271.2848 15.08824490190448
STARLINK-3722           
1 52089U 22029B   25221.59005274 -.00004336  00000+0 -25255-3 0  9992
2 52089  53.2180 321.2656 0001232  75.8578 284.2551 15.09114660188634
STARLINK-3712           
1 52090U 22029C   25221.57993029  .00000619  00000+0  56965-4 0  9997
2 52090  53.2185 321.3191 0001205  89.7448 270.3682 15.08847174188639
STARLINK-3716           
1 52092U 22029E   25221.58361167  .00000921  00000+0  75933-4 0  9994
2 52092  53.2184 321.3039 0001252  96.5728 263.5407 15.08845355188638
STARLINK-3673           
1 52093U 22029F   25221.57353353 -.00000107  00000+0  11365-4 0  9998
2 52093  53.2180 321.3585 0001298  92.2885 267.8256 15.08839873188635
STARLINK-3714           
1 52094U 22029G   25221.57624784  .00001189  00000+0  92776-4 0  9993
2 52094  53.2180 321.3352 0000974  93.9269 266.1834 15.08847377188634
STARLINK-3701           
1 52095U 22029H   25221.56521997  .00012455  00000+0  79846-3 0  9995
2 52095  53.2185 321.3841 0001297  88.8572 271.2569 15.08877500188635
STARLINK-3717           
1 52096U 22029J   25221.54405676  .00002606  00000+0  18172-3 0  9991
2 52096  53.2181 311.4816 0001313  74.5406 285.5731 15.08845902188754
STARLINK-3665           
1 52098U 22029L   25221.56889746  .00000078  00000+0  22969-4 0  9990
2 52098  53.2182 321.3669 0001094  86.4493 273.6625 15.08839020188638
STARLINK-3702           
1 52100U 22029N   25221.56153247  .00001324  00000+0  10124-3 0  9998
2 52100  53.2181 321.4020 0001125  83.8806 276.2314 15.08840826188637
STARLINK-3703           
1 52101U 22029P   25221.57260050  .00000327  00000+0  38636-4 0  9992
2 52101  53.2192 321.5446 0001363  92.0964 268.0184 15.08838648188626
STARLINK-3709           
1 52102U 22029Q   25221.56341877  .00000032  00000+0  20085-4 0  9991
2 52102  53.2205 311.3955 0001414  96.7176 263.3977 15.08836516188762
STARLINK-3705           
1 52103U 22029R   25221.53668863  .00000250  00000+0  33815-4 0  9993
2 52103  53.2181 311.5128 0001278  85.8793 274.2345 15.08848926188759
STARLINK-3706           
1 52105U 22029T   25221.53029174  .00006951  00000+0  45431-3 0  9991
2 52105  53.2175 311.5430 0001203  97.0089 263.1040 15.08848544188756
STARLINK-3670           
1 52106U 22029U   25221.55050106 -.00000681  00000+0 -24728-4 0  9996
2 52106  53.2197 321.4528 0001392  93.9370 266.1782 15.08838942188629
STARLINK-3658           
1 52107U 22029V   25221.52564747 -.00001770  00000+0 -93161-4 0  9992
2 52107  53.2185 311.5646 0000947  97.0952 263.0148 15.08848592188752
STARLINK-3698           
1 52108U 22029W   25221.53301526 -.00000361  00000+0 -45776-5 0  9993
2 52108  53.2185 311.5301 0001312  90.4380 269.6762 15.08841526188754
