[{"OBJECT_NAME":"STARLINK-3668","OBJECT_ID":"2022-025AY","EPOCH":"2025-08-09T19:01:09.956640","MEAN_MOTION":15.0882449,"ECCENTRICITY":9.52e-5,"INCLINATION":53.2167,"RA_OF_ASC_NODE":250.4047,"ARG_OF_PERICENTER":88.8253,"MEAN_ANOMALY":271.2848,"EPHEMERIS_TYPE":0,"CLASSIFICATION_TYPE":"U","NORAD_CAT_ID":52002,"ELEMENT_SET_NO":999,"REV_AT_EPOCH":19044,"BSTAR":-4.5683e-5,"MEAN_MOTION_DOT":-1.014e-5,"MEAN_MOTION_DDOT":0},{"OBJECT_NAME":"STARLINK-3722","OBJECT_ID":"2022-029B","EPOCH":"2025-08-09T14:09:40.556736","MEAN_MOTION":15.0911466,"ECCENTRICITY":0.0001232,"INCLINATION":53.218,"RA_OF_ASC_NODE":321.2656,"ARG_OF_PERICENTER":75.8578,"MEAN_ANOMALY":284.2551,"EPHEMERIS_TYPE":0,"CLASSIFICATION_TYPE":"U","NORAD_CAT_ID":52089,"ELEMENT_SET_NO":999,"REV_AT_EPOCH":18863,"BSTAR":-0.00025255,"MEAN_MOTION_DOT":-4.336e-5,"MEAN_MOTION_DDOT":0},{"OBJECT_NAME":"STARLINK-3712","OBJECT_ID":"2022-029C","EPOCH":"2025-08-09T13:55:05.977056","MEAN_MOTION":15.08847174,"ECCENTRICITY":0.0001205,"INCLINATION":53.2185,"RA_OF_ASC_NODE":321.3191,"ARG_OF_PERICENTER":89.7448,"MEAN_ANOMALY":270.3682,"EPHEMERIS_TYPE":0,"CLASSIFICATION_TYPE":"U","NORAD_CAT_ID":52090,"ELEMENT_SET_NO":999,"REV_AT_EPOCH":18863,"BSTAR":5.6965e-5,"MEAN_MOTION_DOT":6.19e-6,"MEAN_MOTION_DDOT":0},{"OBJECT_NAME":"STARLINK-3716","OBJECT_ID":"2022-029E","EPOCH":"2025-08-09T14:00:24.048288","MEAN_MOTION":15.08845355,"ECCENTRICITY":0.0001252,"INCLINATION":53.2184,"RA_OF_ASC_NODE":321.3039,"ARG_OF_PERICENTER":96.5728,"MEAN_ANOMALY":263.5407,"EPHEMERIS_TYPE":0,"CLASSIFICATION_TYPE":"U","NORAD_CAT_ID":52092,"ELEMENT_SET_NO":999,"REV_AT_EPOCH":18863,"BSTAR":7.5933e-5,"MEAN_MOTION_DOT":9.21e-6,"MEAN_MOTION_DDOT":0},{"OBJECT_NAME":"STARLINK-3673","OBJECT_ID":"2022-029F","EPOCH":"2025-08-09T13:45:53.296992","MEAN_MOTION":15.08839873,"ECCENTRICITY":0.0001298,"INCLINATION":53.218,"RA_OF_ASC_NODE":321.3585,"ARG_OF_PERICENTER":92.2885,"MEAN_ANOMALY":267.8256,"EPHEMERIS_TYPE":0,"CLASSIFICATION_TYPE":"U","NORAD_CAT_ID":52093,"ELEMENT_SET_NO":999,"REV_AT_EPOCH":18863,"BSTAR":1.1365e-5,"MEAN_MOTION_DOT":-1.07e-6,"MEAN_MOTION_DDOT":0},{"OBJECT_NAME":"STARLINK-3714","OBJECT_ID":"2022-029G","EPOCH":"2025-08-09T13:49:47.813376","MEAN_MOTION":15.08847377,"ECCENTRICITY":9.74e-5,"INCLINATION":53.218,"RA_OF_ASC_NODE":321.3352,"ARG_OF_PERICENTER":93.9269,"MEAN_ANOMALY":266.1834,"EPHEMERIS_TYPE":0,"CLASSIFICATION_TYPE":"U","NORAD_CAT_ID":52094,"ELEMENT_SET_NO":999,"REV_AT_EPOCH":18863,"BSTAR":9.2776e-5,"MEAN_MOTION_DOT":1.189e-5,"MEAN_MOTION_DDOT":0},{"OBJECT_NAME":"STARLINK-3701","OBJECT_ID":"2022-029H","EPOCH":"2025-08-09T13:33:55.005408","MEAN_MOTION":15.088775,"ECCENTRICITY":0.0001297,"INCLINATION":53.2185,"RA_OF_ASC_NODE":321.3841,"ARG_OF_PERICENTER":88.8572,"MEAN_ANOMALY":271.2569,"EPHEMERIS_TYPE":0,"CLASSIFICATION_TYPE":"U","NORAD_CAT_ID":52095,"ELEMENT_SET_NO":999,"REV_AT_EPOCH":18863,"BSTAR":0.00079846,"MEAN_MOTION_DOT":0.00012455,"MEAN_MOTION_DDOT":0},{"OBJECT_NAME":"STARLINK-3717","OBJECT_ID":"2022-029J","EPOCH":"2025-08-09T13:03:26.504064","MEAN_MOTION":15.08845902,"ECCENTRICITY":0.0001313,"INCLINATION":53.2181,"RA_OF_ASC_NODE":311.4816,"ARG_OF_PERICENTER":74.5406,"MEAN_ANOMALY":285.5731,"EPHEMERIS_TYPE":0,"CLASSIFICATION_TYPE":"U","NORAD_CAT_ID":52096,"ELEMENT_SET_NO":999,"REV_AT_EPOCH":18875,"BSTAR":0.00018172,"MEAN_MOTION_DOT":2.606e-5,"MEAN_MOTION_DDOT":0},{"OBJECT_NAME":"STARLINK-3665","OBJECT_ID":"2022-029L","EPOCH":"2025-08-09T13:39:12.740544","MEAN_MOTION":15.0883902,"ECCENTRICITY":0.0001094,"INCLINATION":53.2182,"RA_OF_ASC_NODE":321.3669,"ARG_OF_PERICENTER":86.4493,"MEAN_ANOMALY":273.6625,"EPHEMERIS_TYPE":0,"CLASSIFICATION_TYPE":"U","NORAD_CAT_ID":52098,"ELEMENT_SET_NO":999,"REV_AT_EPOCH":18863,"BSTAR":2.2969e-5,"MEAN_MOTION_DOT":7.8e-7,"MEAN_MOTION_DDOT":0},{"OBJECT_NAME":"STARLINK-3702","OBJECT_ID":"2022-029N","EPOCH":"2025-08-09T13:28:36.405408","MEAN_MOTION":15.08840826,"ECCENTRICITY":0.0001125,"INCLINATION":53.2181,"RA_OF_ASC_NODE":321.402,"ARG_OF_PERICENTER":83.8806,"MEAN_ANOMALY":276.2314,"EPHEMERIS_TYPE":0,"CLASSIFICATION_TYPE":"U","NORAD_CAT_ID":52100,"ELEMENT_SET_NO":999,"REV_AT_EPOCH":18863,"BSTAR":0.00010124,"MEAN_MOTION_DOT":1.324e-5,"MEAN_MOTION_DDOT":0},{"OBJECT_NAME":"STARLINK-3703","OBJECT_ID":"2022-029P","EPOCH":"2025-08-09T13:44:32.683200","MEAN_MOTION":15.08838648,"ECCENTRICITY":0.0001363,"INCLINATION":53.2192,"RA_OF_ASC_NODE":321.5446,"ARG_OF_PERICENTER":92.0964,"MEAN_ANOMALY":268.0184,"EPHEMERIS_TYPE":0,"CLASSIFICATION_TYPE":"U","NORAD_CAT_ID":52101,"ELEMENT_SET_NO":999,"REV_AT_EPOCH":18862,"BSTAR":3.8636e-5,"MEAN_MOTION_DOT":3.27e-6,"MEAN_MOTION_DDOT":0},{"OBJECT_NAME":"STARLINK-3709","OBJECT_ID":"2022-029Q","EPOCH":"2025-08-09T13:31:19.381728","MEAN_MOTION":15.08836516,"ECCENTRICITY":0.0001414,"INCLINATION":53.2205,"RA_OF_ASC_NODE":311.3955,"ARG_OF_PERICENTER":96.7176,"MEAN_ANOMALY":263.3977,"EPHEMERIS_TYPE":0,"CLASSIFICATION_TYPE":"U","NORAD_CAT_ID":52102,"ELEMENT_SET_NO":999,"REV_AT_EPOCH":18876,"BSTAR":2.0085e-5,"MEAN_MOTION_DOT":3.2e-7,"MEAN_MOTION_DDOT":0},{"OBJECT_NAME":"STARLINK-3705","OBJECT_ID":"2022-029R","EPOCH":"2025-08-09T12:52:49.897632","MEAN_MOTION":15.08848926,"ECCENTRICITY":0.0001278,"INCLINATION":53.2181,"RA_OF_ASC_NODE":311.5128,"ARG_OF_PERICENTER":85.8793,"MEAN_ANOMALY":274.2345,"EPHEMERIS_TYPE":0,"CLASSIFICATION_TYPE":"U","NORAD_CAT_ID":52103,"ELEMENT_SET_NO":999,"REV_AT_EPOCH":18875,"BSTAR":3.3815e-5,"MEAN_MOTION_DOT":2.5e-6,"MEAN_MOTION_DDOT":0},{"OBJECT_NAME":"STARLINK-3706","OBJECT_ID":"2022-029T","EPOCH":"2025-08-09T12:43:37.206336","MEAN_MOTION":15.08848544,"ECCENTRICITY":0.0001203,"INCLINATION":53.2175,"RA_OF_ASC_NODE":311.543,"ARG_OF_PERICENTER":97.0089,"MEAN_ANOMALY":263.104,"EPHEMERIS_TYPE":0,"CLASSIFICATION_TYPE":"U","NORAD_CAT_ID":52105,"ELEMENT_SET_NO":999,"REV_AT_EPOCH":18875,"BSTAR":0.00045431,"MEAN_MOTION_DOT":6.951e-5,"MEAN_MOTION_DDOT":0},{"OBJECT_NAME":"STARLINK-3670","OBJECT_ID":"2022-029U","EPOCH":"2025-08-09T13:12:43.291584","MEAN_MOTION":15.08838942,"ECCENTRICITY":0.0001392,"INCLINATION":53.2197,"RA_OF_ASC_NODE":321.4528,"ARG_OF_PERICENTER":93.937,"MEAN_ANOMALY":266.1782,"EPHEMERIS_TYPE":0,"CLASSIFICATION_TYPE":"U","NORAD_CAT_ID":52106,"ELEMENT_SET_NO":999,"REV_AT_EPOCH":18862,"BSTAR":-2.4728e-5,"MEAN_MOTION_DOT":-6.81e-6,"MEAN_MOTION_DDOT":0},{"OBJECT_NAME":"STARLINK-3658","OBJECT_ID":"2022-029V","EPOCH":"2025-08-09T12:36:55.941408","MEAN_MOTION":15.08848592,"ECCENTRICITY":9.47e-5,"INCLINATION":53.2185,"RA_OF_ASC_NODE":311.5646,"ARG_OF_PERICENTER":97.0952,"MEAN_ANOMALY":263.0148,"EPHEMERIS_TYPE":0,"CLASSIFICATION_TYPE":"U","NORAD_CAT_ID":52107,"ELEMENT_SET_NO":999,"REV_AT_EPOCH":18875,"BSTAR":-9.3161e-5,"MEAN_MOTION_DOT":-1.77e-5,"MEAN_MOTION_DDOT":0},{"OBJECT_NAME":"STARLINK-3698","OBJECT_ID":"2022-029W","EPOCH":"2025-08-09T12:47:32.518464","MEAN_MOTION":15.08841526,"ECCENTRICITY":0.0001312,"INCLINATION":53.2185,"RA_OF_ASC_NODE":311.5301,"ARG_OF_PERICENTER":90.438,"MEAN_ANOMALY":269.6762,"EPHEMERIS_TYPE":0,"CLASSIFICATION_TYPE":"U","NORAD_CAT_ID":52108,"ELEMENT_SET_NO":999,"REV_AT_EPOCH":18875,"BSTAR":-4.5776e-6,"MEAN_MOTION_DOT":-3.61e-6,"MEAN_MOTION_DDOT":0}]
